NORAD_CAT_ID,OBJECT_NAME,OBJECT_TYPE,EPOCH,MEAN_MOTION,ECCENTRICITY,INCLINATION,RA_OF_ASC_NODE,ARG_OF_PERICENTER,MEAN_ANOMALY,BSTAR,MEAN_MOTION_DOT,MEAN_MOTION_DDOT,TLE_LINE0,TLE_LINE1,TLE_LINE2,SEMIMAJOR_AXIS,PERIOD,APOGEE,PERIGEE,DECAYED
53804.0,STARLINK-4729,PAYLOAD,2023-02-18 18:20:58,15.08835538,0.0001219,53.2173,223.9878,76.4337,283.6791,2.4661e-05,1.05e-06,0.0,0 STARLINK-4729,1 53804U 22111AH  23049.76457039  .00000105  00000-0  24661-4 0  9995,2 53804  53.2173 223.9878 0001219  76.4337 283.6791 15.08835538 24766,6917.894,95.438,540.602,538.916,0.0
53804.0,STARLINK-4729,PAYLOAD,2023-02-19 11:50:13,15.088315,0.0001117,53.2178,220.7164,77.3441,282.7676,3.8531e-05,3.25e-06,0.0,0 STARLINK-4729,1 53804U 22111AH  23050.49321321  .00000325  00000-0  38531-4 0  9996,2 53804  53.2178 220.7164 0001117  77.3441 282.7676 15.08831500 25686,6917.906,95.438,540.544,538.999,0.0
53804.0,STARLINK-4729,PAYLOAD,2023-02-19 15:00:58,15.08901119,0.0001517,53.218,220.1211,69.3727,290.7428,-0.00078869,-0.00012839,0.0,0 STARLINK-4729,1 53804U 22111AH  23050.62567701 -.00012839  00000-0 -78869-3 0  9997,2 53804  53.2180 220.1211 0001517  69.3727 290.7428 15.08901119 24898,6917.694,95.434,540.608,538.509,0.0
53804.0,STARLINK-4729,PAYLOAD,2023-02-19 18:11:45,15.08838202,0.0001082,53.2179,219.5273,75.7602,284.351,8.9853e-05,1.142e-05,0.0,0 STARLINK-4729,1 53804U 22111AH  23050.75816794  .00001142  00000-0  89853-4 0  9999,2 53804  53.2179 219.5273 0001082  75.7602 284.3510 15.08838202 24912,6917.886,95.438,540.499,539.002,0.0
53804.0,STARLINK-4729,PAYLOAD,2023-02-20 03:44:04,15.08836689,0.0001072,53.2179,217.7433,73.5398,286.5712,1.644e-05,-2.6e-07,0.0,0 STARLINK-4729,1 53804U 22111AH  23051.15561173 -.00000026  00000-0  16440-4 0  9995,2 53804  53.2179 217.7433 0001072  73.5398 286.5712 15.08836689 25788,6917.891,95.438,540.497,539.014,0.0
53804.0,STARLINK-4729,PAYLOAD,2023-02-20 18:02:33,15.08836593,0.000106,53.2173,215.068,81.7927,278.3186,-1.7996e-05,-5.74e-06,0.0,0 STARLINK-4729,1 53804U 22111AH  23051.75177431 -.00000574  00000-0 -17996-4 0  9997,2 53804  53.2173 215.0680 0001060  81.7927 278.3186 15.08836593 25062,6917.891,95.438,540.489,539.023,0.0
53804.0,STARLINK-4729,PAYLOAD,2023-02-21 14:42:33,15.08846935,0.0001054,53.2174,211.2022,83.8449,276.2663,2.1612e-05,5.6e-07,0.0,0 STARLINK-4729,1 53804U 22111AH  23052.61288541  .00000056  00000-0  21612-4 0  9991,2 53804  53.2174 211.2022 0001054  83.8449 276.2663 15.08846935 25198,6917.859,95.437,540.453,538.995,0.0
53804.0,STARLINK-4729,PAYLOAD,2023-02-21 19:28:41,15.08857098,0.0001108,53.217,210.3107,90.5577,269.5542,0.00010634,1.406e-05,0.0,0 STARLINK-4729,1 53804U 22111AH  23052.81159468  .00001406  00000-0  10634-3 0  9999,2 53804  53.2170 210.3107 0001108  90.5577 269.5542 15.08857098 25222,6917.828,95.436,540.46,538.927,0.0
53804.0,STARLINK-4729,PAYLOAD,2023-02-22 03:25:36,15.08865702,0.0001249,53.2183,208.8238,77.8128,282.3004,0.00020753,3.019e-05,0.0,0 STARLINK-4729,1 53804U 22111AH  23053.14278223  .00003019  00000-0  20753-3 0  9992,2 53804  53.2183 208.8238 0001249  77.8128 282.3004 15.08865702 25271,6917.802,95.436,540.531,538.803,0.0
53804.0,STARLINK-4729,PAYLOAD,2023-02-22 12:57:57,15.08833007,0.0001252,53.2182,207.0405,93.7915,266.322,-4.8652e-05,-1.062e-05,0.0,0 STARLINK-4729,1 53804U 22111AH  23053.54024911 -.00001062  00000-0 -48652-4 0  9996,2 53804  53.2182 207.0405 0001252  93.7915 266.3220 15.08833007 26144,6917.902,95.438,540.633,538.901,0.0
53804.0,STARLINK-4729,PAYLOAD,2023-02-22 19:19:30,15.08827041,8.49e-05,53.2192,205.851,98.0356,262.0732,-0.0001342,-2.422e-05,0.0,0 STARLINK-4729,1 53804U 22111AH  23053.80521675 -.00002422  00000-0 -13420-3 0  9999,2 53804  53.2192 205.8510 0000849  98.0356 262.0732 15.08827041 25372,6917.92,95.438,540.372,539.198,0.0
53804.0,STARLINK-4729,PAYLOAD,2023-02-23 12:48:45,15.08838993,7.48e-05,53.2196,202.5792,95.4491,264.6586,-0.00015734,-2.791e-05,0.0,0 STARLINK-4729,1 53804U 22111AH  23054.53385442 -.00002791  00000-0 -15734-3 0  9999,2 53804  53.2196 202.5792 0000748  95.4491 264.6586 15.08838993 25486,6917.883,95.438,540.266,539.231,0.0
53804.0,STARLINK-4729,PAYLOAD,2023-02-23 19:10:16,15.08851733,0.0001324,53.2182,201.3889,80.9423,279.1719,-5.254e-05,-1.124e-05,0.0,0 STARLINK-4729,1 53804U 22111AH  23054.79880473 -.00001124  00000-0 -52540-4 0  9997,2 53804  53.2182 201.3889 0001324  80.9423 279.1719 15.08851733 25521,6917.845,95.437,540.625,538.794,0.0
53804.0,STARLINK-4729,PAYLOAD,2023-02-24 03:07:13,15.08838132,0.0001482,53.2188,199.9028,80.624,279.492,-0.00015736,-2.791e-05,0.0,0 STARLINK-4729,1 53804U 22111AH  23055.13001670 -.00002791  00000-0 -15736-3 0  9996,2 53804  53.2188 199.9028 0001482  80.6240 279.4920 15.08838132 25573,6917.886,95.438,540.776,538.726,0.0
53804.0,STARLINK-4729,PAYLOAD,2023-02-24 09:28:46,15.0882239,0.0001358,53.2184,198.7132,82.9952,277.1195,1.5844e-05,-3.6e-07,0.0,0 STARLINK-4729,1 53804U 22111AH  23055.39497965 -.00000036  00000-0  15844-4 0  9990,2 53804  53.2184 198.7132 0001358  82.9952 277.1195 15.08822390 26422,6917.934,95.439,540.739,538.86,0.0
53804.0,STARLINK-4729,PAYLOAD,2023-02-24 20:36:27,15.08826538,0.0001305,53.2189,196.6314,84.7027,275.4114,0.00017949,2.569e-05,0.0,0 STARLINK-4729,1 53804U 22111AH  23055.85865476  .00002569  00000-0  17949-3 0  9996,2 53804  53.2189 196.6314 0001305  84.7027 275.4114 15.08826538 26498,6917.922,95.438,540.689,538.884,0.0
53804.0,STARLINK-4729,PAYLOAD,2023-02-25 12:30:19,15.08834667,0.0001337,53.2189,193.6568,83.8754,276.2391,4.2939e-05,3.95e-06,0.0,0 STARLINK-4729,1 53804U 22111AH  23056.52105939  .00000395  00000-0  42939-4 0  9995,2 53804  53.2189 193.6568 0001337  83.8754 276.2391 15.08834667 25787,6917.897,95.438,540.687,538.837,0.0
53804.0,STARLINK-4729,PAYLOAD,2023-02-25 18:51:51,15.08850617,0.0001661,53.2198,192.4681,69.3462,290.7708,3.7547e-05,3.1e-06,0.0,0 STARLINK-4729,1 53804U 22111AH  23056.78601034  .00000310  00000-0  37547-4 0  9996,2 53804  53.2198 192.4681 0001661  69.3462 290.7708 15.08850617 25826,6917.848,95.437,540.862,538.564,0.0
53804.0,STARLINK-4729,PAYLOAD,2023-02-26 10:45:43,15.08837247,0.0001198,53.2186,189.4936,106.3824,253.73,4.7709e-05,4.71e-06,0.0,0 STARLINK-4729,1 53804U 22111AH  23057.44841558  .00000471  00000-0  47709-4 0  9996,2 53804  53.2186 189.4936 0001198 106.3824 253.7300 15.08837247 25923,6917.889,95.438,540.583,538.925,0.0
53804.0,STARLINK-4729,PAYLOAD,2023-02-26 18:42:37,15.08858345,0.0001474,53.2197,188.0092,80.5176,279.5983,0.00016198,2.292e-05,0.0,0 STARLINK-4729,1 53804U 22111AH  23057.77959785  .00002292  00000-0  16198-3 0  9994,2 53804  53.2197 188.0092 0001474  80.5176 279.5983 15.08858345 25973,6917.824,95.436,540.709,538.67,0.0
53804.0,STARLINK-4729,PAYLOAD,2023-02-27 01:04:12,15.08828047,0.0001574,53.2204,186.819,83.6771,276.44,-0.00011592,-2.132e-05,0.0,0 STARLINK-4729,1 53804U 22111AH  23058.04458572 -.00002132  00000-0 -11592-3 0  9991,2 53804  53.2204 186.8190 0001574  83.6771 276.4400 15.08828047 26015,6917.917,95.438,540.871,538.693,0.0
53804.0,STARLINK-4729,PAYLOAD,2023-02-27 10:36:31,15.08829928,0.000144,53.2199,185.0341,98.4964,261.6192,-0.00012144,-2.22e-05,0.0,0 STARLINK-4729,1 53804U 22111AH  23058.44202737 -.00002220  00000-0 -12144-3 0  9997,2 53804  53.2199 185.0341 0001440  98.4964 261.6192 15.08829928 26885,6917.911,95.438,540.772,538.78,0.0
53804.0,STARLINK-4729,PAYLOAD,2023-02-27 12:11:53,15.08833325,0.000148,53.2181,184.7371,79.4621,280.6538,-6.2634e-05,-1.284e-05,0.0,0 STARLINK-4729,1 53804U 22111AH  23058.50826246 -.00001284  00000-0 -62634-4 0  9990,2 53804  53.2181 184.7371 0001480  79.4621 280.6538 15.08833325 26081,6917.901,95.438,540.79,538.742,0.0
53804.0,STARLINK-4729,PAYLOAD,2023-02-27 13:47:16,15.08841636,0.0001776,53.2203,184.4421,104.0102,256.1087,-5.0427e-06,-3.68e-06,0.0,0 STARLINK-4729,1 53804U 22111AH  23058.57449435 -.00000368  00000-0 -50427-5 0  9998,2 53804  53.2203 184.4421 0001776 104.0102 256.1087 15.08841636 26908,6917.875,95.437,540.969,538.512,0.0
53804.0,STARLINK-4729,PAYLOAD,2023-02-28 13:38:03,15.08845032,0.0001335,53.2186,179.9801,100.4405,259.6737,-8.4615e-05,-1.634e-05,0.0,0 STARLINK-4729,1 53804U 22111AH  23059.56809323 -.00001634  00000-0 -84615-4 0  9996,2 53804  53.2186 179.9801 0001335 100.4405 259.6737 15.08845032 27057,6917.865,95.437,540.654,538.806,0.0
53804.0,STARLINK-4729,PAYLOAD,2023-02-28 16:48:48,15.08857228,0.0001459,53.2201,179.3866,119.4454,240.6684,-4.618e-06,-3.62e-06,0.0,0 STARLINK-4729,1 53804U 22111AH  23059.70056097 -.00000362  00000-0 -46180-5 0  9997,2 53804  53.2201 179.3866 0001459 119.4454 240.6684 15.08857228 27074,6917.828,95.436,540.702,538.683,0.0
53804.0,STARLINK-4729,PAYLOAD,2023-03-01 00:45:45,15.08841684,0.00014,53.2193,177.8988,86.1596,273.9557,-0.00018566,-3.242e-05,0.0,0 STARLINK-4729,1 53804U 22111AH  23060.03177734 -.00003242  00000-0 -18566-3 0  9992,2 53804  53.2193 177.8988 0001400  86.1596 273.9557 15.08841684 26318,6917.875,95.437,540.709,538.772,0.0
53804.0,STARLINK-4729,PAYLOAD,2023-03-01 10:18:06,15.08808626,0.0001567,53.2196,176.1172,99.3778,260.7391,-0.0001765,-3.093e-05,0.0,0 STARLINK-4729,1 53804U 22111AH  23060.42924383 -.00003093  00000-0 -17650-3 0  9992,2 53804  53.2196 176.1172 0001567  99.3778 260.7391 15.08808626 26375,6917.976,95.44,540.925,538.757,0.0
53804.0,STARLINK-4729,PAYLOAD,2023-03-01 16:39:38,15.08825329,0.0001433,53.2197,174.9246,119.9559,240.1576,-0.00014288,-2.56e-05,0.0,0 STARLINK-4729,1 53804U 22111AH  23060.69419493 -.00002560  00000-0 -14288-3 0  9994,2 53804  53.2197 174.9246 0001433 119.9559 240.1576 15.08825329 26413,6917.925,95.438,540.782,538.799,0.0
53804.0,STARLINK-4729,PAYLOAD,2023-03-02 00:36:33,15.08837947,0.0001039,53.2194,173.4382,100.8501,259.2609,-0.00017249,-3.032e-05,0.0,0 STARLINK-4729,1 53804U 22111AH  23061.02539001 -.00003032  00000-0 -17249-3 0  9995,2 53804  53.2194 173.4382 0001039 100.8501 259.2609 15.08837947 26465,6917.887,95.438,540.47,539.033,0.0
